NORAD_CAT_ID,OBJECT_NAME,OBJECT_TYPE,EPOCH,MEAN_MOTION,ECCENTRICITY,INCLINATION,RA_OF_ASC_NODE,ARG_OF_PERICENTER,MEAN_ANOMALY,BSTAR,MEAN_MOTION_DOT,MEAN_MOTION_DDOT,TLE_LINE0,TLE_LINE1,TLE_LINE2,SEMIMAJOR_AXIS,PERIOD,APOGEE,PERIGEE,DECAYED
55942.0,STARLINK-5917,PAYLOAD,2023-03-22 18:00:00,15.95114715,0.0039457,69.9998,167.7457,162.6133,300.1755,-0.0023043,-0.00975014,0.00029775,0 STARLINK-5917,1 55942U 23037AE  23081.75001157 -.00975014  29775-3 -23043-2 0  9995,2 55942  69.9998 167.7457 0039457 162.6133 300.1755 15.95114715  1308,6666.132,90.276,314.299,261.694,0.0
55942.0,STARLINK-5917,PAYLOAD,2023-03-22 22:00:00,15.94817259,0.0038258,69.9998,167.2593,163.2842,176.1729,-0.0024985,-0.01034509,0.00033115,0 STARLINK-5917,1 55942U 23037AE  23081.91667824 -.01034509  33115-3 -24985-2 0  9997,2 55942  69.9998 167.2593 0038258 163.2842 176.1729 15.94817259  1300,6666.961,90.292,314.332,263.319,0.0
55942.0,STARLINK-5917,PAYLOAD,2023-03-23 01:05:53,15.94808158,0.0038561,69.9972,166.8818,161.597,198.6644,-0.00062796,-0.00262127,2.7442e-05,0 STARLINK-5917,1 55942U 23037AE  23082.04576117 -.00262127  27442-4 -62796-3 0  9994,2 55942  69.9972 166.8818 0038561 161.5970 198.6644 15.94808158  1344,6666.986,90.293,314.56,263.142,0.0
55942.0,STARLINK-5917,PAYLOAD,2023-03-23 14:00:01,15.93485634,0.0031749,70.0002,165.3167,164.5677,39.7234,-0.0026039,-0.00980637,0.0002959,0 STARLINK-5917,1 55942U 23037AE  23082.58335648 -.00980637  29590-3 -26039-2 0  9992,2 55942  70.0002 165.3167 0031749 164.5677  39.7234 15.93485634  1439,6670.674,90.368,313.718,271.361,0.0
55942.0,STARLINK-5917,PAYLOAD,2023-03-24 17:00:11,15.91279578,0.0018376,69.9999,162.0468,173.9786,358.0933,-0.0029908,-0.00971409,0.00028436,0 STARLINK-5917,1 55942U 23037AE  23083.70846065 -.00971409  28436-3 -29908-2 0  9990,2 55942  69.9999 162.0468 0018376 173.9786 358.0933 15.91279578  1603,6676.838,90.493,310.973,286.434,0.0
55942.0,STARLINK-5917,PAYLOAD,2023-03-24 22:00:01,15.90897859,0.0017121,70.0001,161.4423,176.8788,107.533,-0.0032285,-0.01025706,0.00031327,0 STARLINK-5917,1 55942U 23037AE  23083.91668981 -.01025706  31327-3 -32285-2 0  9998,2 55942  70.0001 161.4423 0017121 176.8788 107.5330 15.90897859  1307,6677.906,90.515,311.204,288.338,0.0
55942.0,STARLINK-5917,PAYLOAD,2023-03-25 06:00:00,15.90244559,0.0012553,70.0001,160.4767,186.142,206.2791,-0.0033429,-0.01020948,0.00030859,0 STARLINK-5917,1 55942U 23037AE  23084.25001157 -.01020948  30859-3 -33429-2 0  9995,2 55942  70.0001 160.4767 0012553 186.1420 206.2791 15.90244559  1691,6679.735,90.552,309.985,293.215,0.0
55942.0,STARLINK-5917,PAYLOAD,2023-03-25 14:00:01,15.89570141,0.001067,70.0001,159.5117,196.2495,303.4737,-0.0033153,-0.00976999,0.00028259,0 STARLINK-5917,1 55942U 23037AE  23084.58334491 -.00976999  28259-3 -33153-2 0  9991,2 55942  70.0001 159.5117 0010670 196.2495 303.4737 15.89570141  1744,6681.624,90.591,310.618,296.36,0.0
55942.0,STARLINK-5917,PAYLOAD,2023-03-25 22:00:00,15.88941581,0.0008781,69.9999,158.5466,214.2977,31.929,-0.003595,-0.01024551,0.0003067,0 STARLINK-5917,1 55942U 23037AE  23084.91667824 -.01024551  30670-3 -35950-2 0  9993,2 55942  69.9999 158.5466 0008781 214.2977  31.9290 15.88941581  1790,6683.386,90.626,311.12,299.382,0.0
55942.0,STARLINK-5917,PAYLOAD,2023-03-26 06:00:00,15.88298924,0.0008481,69.9998,157.5835,236.6873,115.2648,-0.0037812,-0.01043341,0.00031523,0 STARLINK-5917,1 55942U 23037AE  23085.25001157 -.01043341  31523-3 -37812-2 0  9997,2 55942  69.9998 157.5835 0008481 236.6873 115.2648 15.88298924  1854,6685.189,90.663,312.724,301.384,0.0
55942.0,STARLINK-5917,PAYLOAD,2023-03-26 22:00:01,15.86968559,0.0009145,69.9998,155.6597,266.4015,294.739,-0.0038478,-0.00904698,0.0,0 STARLINK-5917,1 55942U 23037AE  23085.91668981 -.00904698  00000-0 -38478-2 0  9996,2 55942  69.9998 155.6597 0009145 266.4015 294.7390 15.86968559  1959,6688.924,90.739,316.907,304.672,0.0
55942.0,STARLINK-5917,PAYLOAD,2023-03-27 14:00:01,15.8567255,0.0007623,69.9999,153.739,271.6921,135.3617,-0.0041703,-0.00917329,0.0,0 STARLINK-5917,1 55942U 23037AE  23086.58334491 -.00917329  00000-0 -41703-2 0  9996,2 55942  69.9999 153.7390 0007623 271.6921 135.3617 15.85672550  1306,6692.569,90.813,319.535,309.332,0.0
55942.0,STARLINK-5917,PAYLOAD,2023-03-27 22:00:00,15.85036267,0.000405,70.0002,152.7805,275.2794,233.5846,-0.0044169,-0.00937074,0.0,0 STARLINK-5917,1 55942U 23037AE  23086.91667824 -.00937074  00000-0 -44169-2 0  9990,2 55942  70.0002 152.7805 0004050 275.2794 233.5846 15.85036267  1307,6694.36,90.85,318.936,313.513,0.0
55942.0,STARLINK-5917,PAYLOAD,2023-03-28 14:00:01,15.83710774,0.0003705,70.0005,150.8658,269.201,80.9608,-0.0045344,-0.00905753,0.0,0 STARLINK-5917,1 55942U 23037AE  23087.58334491 -.00905753  00000-0 -45344-2 0  9990,2 55942  70.0005 150.8658 0003705 269.2010  80.9608 15.83710774  1305,6698.094,90.926,322.441,317.478,0.0
55942.0,STARLINK-5917,PAYLOAD,2023-03-28 22:00:00,15.83077571,0.0003675,69.9999,149.9096,280.0695,169.5553,-0.0048269,-0.00932669,0.0,0 STARLINK-5917,1 55942U 23037AE  23087.91667824 -.00932669  00000-0 -48269-2 0  9991,2 55942  69.9999 149.9096 0003675 280.0695 169.5553 15.83077571  1309,6699.88,90.962,324.208,319.283,0.0
55942.0,STARLINK-5917,PAYLOAD,2023-03-29 02:00:01,15.82732829,0.0003679,70.0002,149.4321,276.1112,42.9645,-0.0047595,-0.00907439,0.0,0 STARLINK-5917,1 55942U 23037AE  23088.08334491 -.00907439  00000-0 -47595-2 0  9999,2 55942  70.0002 149.4321 0003679 276.1112  42.9645 15.82732829  2307,6700.853,90.982,325.183,320.253,0.0
55942.0,STARLINK-5917,PAYLOAD,2023-03-29 14:00:01,15.81755155,0.0003584,70.0002,148.0003,269.672,16.556,-0.0049811,-0.00907065,0.0,0 STARLINK-5917,1 55942U 23037AE  23088.58334491 -.00907065  00000-0 -49811-2 0  9992,2 55942  70.0002 148.0003 0003584 269.6720  16.5560 15.81755155  1304,6703.614,91.038,327.882,323.076,0.0
55942.0,STARLINK-5917,PAYLOAD,2023-03-29 22:00:00,15.81106693,0.0003742,70.0,147.0474,280.7259,102.6254,-0.0051728,-0.0091337,0.0,0 STARLINK-5917,1 55942U 23037AE  23088.91667824 -.00913370  00000-0 -51728-2 0  9994,2 55942  70.0000 147.0474 0003742 280.7259 102.6254 15.81106693  1304,6705.447,91.075,329.821,324.803,0.0
55942.0,STARLINK-5917,PAYLOAD,2023-03-30 00:00:00,15.80935662,0.000361,69.9998,146.8092,279.5335,217.9797,-0.0051368,-0.00901071,0.0,0 STARLINK-5917,1 55942U 23037AE  23089.00001157 -.00901071  00000-0 -51368-2 0  9991,2 55942  69.9998 146.8092 0003610 279.5335 217.9797 15.80935662  2448,6705.93,91.085,330.216,325.375,0.0
55942.0,STARLINK-5917,PAYLOAD,2023-03-30 22:00:00,15.79144722,0.0003608,70.0001,144.1928,268.7847,41.2482,-0.0056125,-0.00906233,0.0,0 STARLINK-5917,1 55942U 23037AE  23089.91667824 -.00906233  00000-0 -56125-2 0  9991,2 55942  70.0001 144.1928 0003608 268.7847  41.2482 15.79144722  1300,6711.0,91.189,335.286,330.443,0.0
55942.0,STARLINK-5917,PAYLOAD,2023-03-31 22:00:00,15.77188457,0.0003497,70.0001,141.3467,273.7613,315.91,-0.006131,-0.0090631,0.0,0 STARLINK-5917,1 55942U 23037AE  23090.91667824 -.00906310  00000-0 -61310-2 0  9991,2 55942  70.0001 141.3467 0003497 273.7613 315.9100 15.77188457  2748,6716.548,91.302,340.762,336.064,0.0
55942.0,STARLINK-5917,PAYLOAD,2023-04-01 14:00:01,15.75882283,0.0003669,69.9999,139.4541,277.9202,134.2651,-0.006459,-0.00901614,0.0,0 STARLINK-5917,1 55942U 23037AE  23091.58334491 -.00901614  00000-0 -64590-2 0  9991,2 55942  69.9999 139.4541 0003669 277.9202 134.2651 15.75882283  1303,6720.259,91.377,344.589,339.658,0.0
55942.0,STARLINK-5917,PAYLOAD,2023-04-01 22:00:00,15.75230323,0.0003602,70.0001,138.5088,283.6888,218.5803,-0.0066521,-0.00902225,0.0,0 STARLINK-5917,1 55942U 23037AE  23091.91667824 -.00902225  00000-0 -66521-2 0  9992,2 55942  70.0001 138.5088 0003602 283.6888 218.5803 15.75230323  2901,6722.113,91.415,346.399,341.557,0.0
55942.0,STARLINK-5917,PAYLOAD,2023-04-02 14:00:01,15.73926185,0.0003651,70.0,136.6219,277.6483,42.441,-0.00704,-0.00902127,0.0,0 STARLINK-5917,1 55942U 23037AE  23092.58334491 -.00902127  00000-0 -70400-2 0  9999,2 55942  70.0000 136.6219 0003651 277.6483  42.4410 15.73926185  1300,6725.826,91.491,350.146,345.235,0.0
55942.0,STARLINK-5917,PAYLOAD,2023-04-02 22:00:00,15.73268656,0.0003744,70.0003,135.6794,283.3781,124.4506,-0.0071786,-0.00894961,0.0,0 STARLINK-5917,1 55942U 23037AE  23092.91667824 -.00894961  00000-0 -71786-2 0  9999,2 55942  70.0003 135.6794 0003744 283.3781 124.4506 15.73268656  1307,6727.699,91.529,352.083,347.046,0.0
55942.0,STARLINK-5917,PAYLOAD,2023-04-03 14:00:01,15.71965439,0.0003793,69.9944,133.7902,276.0776,304.8701,-0.0075539,-0.00891119,0.0,0 STARLINK-5917,1 55942U 23037AE  23093.58334491 -.00891119  00000-0 -75539-2 0  9996,2 55942  69.9944 133.7902 0003793 276.0776 304.8701 15.71965439  3163,6731.417,91.605,355.835,350.729,0.0
55942.0,STARLINK-5917,PAYLOAD,2023-04-03 22:00:00,15.71277832,0.0003606,69.9946,132.8504,266.8639,39.4888,-0.0072383,-0.00834938,0.0,0 STARLINK-5917,1 55942U 23037AE  23093.91667824 -.00834938  00000-0 -72383-2 0  9992,2 55942  69.9946 132.8504 0003606 266.8639  39.4888 15.71277832  1305,6733.381,91.645,357.674,352.818,0.0
55942.0,STARLINK-5917,PAYLOAD,2023-04-04 08:00:01,15.70382446,0.0003738,69.9954,131.6769,273.2717,228.8035,-0.0053961,-0.0061539,0.0,0 STARLINK-5917,1 55942U 23037AE  23094.33335648 -.00615390  00000-0 -53961-2 0  9995,2 55942  69.9954 131.6769 0003738 273.2717 228.8035 15.70382446  3283,6735.94,91.697,360.323,355.287,0.0
55942.0,STARLINK-5917,PAYLOAD,2023-04-04 14:00:01,15.69938547,0.0003821,69.9956,130.9735,275.1258,199.6516,-0.00025402,-0.00030667,0.0,0 STARLINK-5917,1 55942U 23037AE  23094.58334491 -.00030667  00000-0 -25402-3 0  9995,2 55942  69.9956 130.9735 0003821 275.1258 199.6516 15.69938547  3325,6737.21,91.723,361.649,356.501,0.0
